[{"OBJECT_NAME":"PRSC-EO1","OBJECT_ID":"2025-012A","EPOCH":"2026-03-09T23:07:33.699072","MEAN_MOTION":15.17765596,"ECCENTRICITY":0.00053607,"INCLINATION":97.4297,"RA_OF_ASC_NODE":143.3271,"ARG_OF_PERICENTER":221.9324,"MEAN_ANOMALY":138.15,"EPHEMERIS_TYPE":0,"CLASSIFICATION_TYPE":"U","NORAD_CAT_ID":62725,"ELEMENT_SET_NO":999,"REV_AT_EPOCH":6314,"BSTAR":0.0005131815,"MEAN_MOTION_DOT":0.00010308,"MEAN_MOTION_DDOT":0},{"OBJECT_NAME":"ICEYE-X60","OBJECT_ID":"2025-276CR","EPOCH":"2026-03-09T18:23:10.076640","MEAN_MOTION":15.18150432,"ECCENTRICITY":0.00030743,"INCLINATION":97.4272,"RA_OF_ASC_NODE":143.9786,"ARG_OF_PERICENTER":37.9944,"MEAN_ANOMALY":322.1506,"EPHEMERIS_TYPE":0,"CLASSIFICATION_TYPE":"U","NORAD_CAT_ID":66753,"ELEMENT_SET_NO":999,"REV_AT_EPOCH":1532,"BSTAR":0.00022155306,"MEAN_MOTION_DOT":4.457e-5,"MEAN_MOTION_DDOT":0}]
